CTC2_L_00233001-01
1 27643U 24403PK  26037.47792824  .00000000  00000+0  00000-0 0  9995
2 27643  95.0000   0.0000 0000000   0.0000   0.0000 14.24551582    16
CTC2_L_00233001-02
1 27644U 26273OC  26037.47792824  .00000000  00000+0  00000-0 0  9993
2 27644  95.0000   0.0000 0000000   0.0000  90.0000 14.24551582    16
CTC2_L_00233001-03
1 27645U 23308AF  26037.47792824  .00000000  00000+0  00000-0 0  9990
2 27645  95.0000   0.0000 0000000   0.0000 180.0000 14.24551582    17
CTC2_L_00233001-04
1 27646U 24018TR  26037.47792824  .00000000  00000+0  00000-0 0  9990
2 27646  95.0000   0.0000 0000000   0.0000 270.0000 14.24551582    18
CTC2_L_00233002-01
1 27647U 24255CL  26037.47792824  .00000000  00000+0  00000-0 0  9994
2 27647  95.0000  12.0000 0000000   0.0000  12.0000 14.24551582    16
CTC2_L_00233002-02
1 27648U 23828PD  26037.47792824  .00000000  00000+0  00000-0 0  9990
2 27648  95.0000  12.0000 0000000   0.0000 102.0000 14.24551582    17
CTC2_L_00233002-03
1 27649U 26109WN  26037.47792824  .00000000  00000+0  00000-0 0  9996
2 27649  95.0000  12.0000 0000000   0.0000 192.0000 14.24551582    17
CTC2_L_00233002-04
1 27650U 24587ZF  26037.47792824  .00000000  00000+0  00000-0 0  9996
2 27650  95.0000  12.0000 0000000   0.0000 282.0000 14.24551582    19
CTC2_L_00233003-01
1 27651U 22768GL  26037.47792824  .00000000  00000+0  00000-0 0  9996
2 27651  95.0000  24.0000 0000000   0.0000  24.0000 14.24551582    17
CTC2_L_00233003-02
1 27652U 25571GW  26037.47792824  .00000000  00000+0  00000-0 0  9992
2 27652  95.0000  24.0000 0000000   0.0000 114.0000 14.24551582    18
CTC2_L_00233003-03
1 27653U 23017XX  26037.47792824  .00000000  00000+0  00000-0 0  9996
2 27653  95.0000  24.0000 0000000   0.0000 204.0000 14.24551582    19
CTC2_L_00233003-04
1 27654U 24140CD  26037.47792824  .00000000  00000+0  00000-0 0  9995
2 27654  95.0000  24.0000 0000000   0.0000 294.0000 14.24551582    19
CTC2_L_00233004-01
1 27655U 26999JZ  26037.47792824  .00000000  00000+0  00000-0 0  9990
2 27655  95.0000  36.0000 0000000   0.0000  36.0000 14.24551582    17
CTC2_L_00233004-02
1 27656U 24750QY  26037.47792824  .00000000  00000+0  00000-0 0  9994
2 27656  95.0000  36.0000 0000000   0.0000 126.0000 14.24551582    18
CTC2_L_00233004-03
1 27657U 22575IO  26037.47792824  .00000000  00000+0  00000-0 0  9998
2 27657  95.0000  36.0000 0000000   0.0000 216.0000 14.24551582    19
CTC2_L_00233004-04
1 27658U 23568XY  26037.47792824  .00000000  00000+0  00000-0 0  9992
2 27658  95.0000  36.0000 0000000   0.0000 306.0000 14.24551582    10
CTC2_L_00233005-01
1 27659U 23759EY  26037.47792824  .00000000  00000+0  00000-0 0  9995
2 27659  95.0000  48.0000 0000000   0.0000  48.0000 14.24551582    17
CTC2_L_00233005-02
1 27660U 23912SX  26037.47792824  .00000000  00000+0  00000-0 0  9998
2 27660  95.0000  48.0000 0000000   0.0000 138.0000 14.24551582    19
CTC2_L_00233005-03
1 27661U 23597A   26037.47792824  .00000000  00000+0  00000-0 0  9998
2 27661  95.0000  48.0000 0000000   0.0000 228.0000 14.24551582    10
CTC2_L_00233005-04
1 27662U 25898CS  26037.47792824  .00000000  00000+0  00000-0 0  9995
2 27662  95.0000  48.0000 0000000   0.0000 318.0000 14.24551582    11
CTC2_L_00233006-01
1 27663U 24101ZI  26037.47792824  .00000000  00000+0  00000-0 0  9992
2 27663  95.0000  60.0000 0000000   0.0000  60.0000 14.24551582    10
CTC2_L_00233006-02
1 27664U 25207FN  26037.47792824  .00000000  00000+0  00000-0 0  9991
2 27664  95.0000  60.0000 0000000   0.0000 150.0000 14.24551582    11
CTC2_L_00233006-03
1 27665U 23331HX  26037.47792824  .00000000  00000+0  00000-0 0  9998
2 27665  95.0000  60.0000 0000000   0.0000 240.0000 14.24551582    12
CTC2_L_00233006-04
1 27666U 22395CD  26037.47792824  .00000000  00000+0  00000-0 0  9998
2 27666  95.0000  60.0000 0000000   0.0000 330.0000 14.24551582    13
CTC2_L_00233007-01
1 27667U 24014MP  26037.47792824  .00000000  00000+0  00000-0 0  9999
2 27667  95.0000  72.0000 0000000   0.0000  72.0000 14.24551582    10
CTC2_L_00233007-02
1 27668U 23859II  26037.47792824  .00000000  00000+0  00000-0 0  9996
2 27668  95.0000  72.0000 0000000   0.0000 162.0000 14.24551582    11
CTC2_L_00233007-03
1 27669U 26743DE  26037.47792824  .00000000  00000+0  00000-0 0  9992
2 27669  95.0000  72.0000 0000000   0.0000 252.0000 14.24551582    12
CTC2_L_00233007-04
1 27670U 22677V   26037.47792824  .00000000  00000+0  00000-0 0  9996
2 27670  95.0000  72.0000 0000000   0.0000 342.0000 14.24551582    14
CTC2_L_00233008-01
1 27671U 25930RS  26037.47792824  .00000000  00000+0  00000-0 0  9992
2 27671  95.0000  84.0000 0000000   0.0000  84.0000 14.24551582    11
CTC2_L_00233008-02
1 27672U 24587JY  26037.47792824  .00000000  00000+0  00000-0 0  9990
2 27672  95.0000  84.0000 0000000   0.0000 174.0000 14.24551582    12
CTC2_L_00233008-03
1 27673U 24709SC  26037.47792824  .00000000  00000+0  00000-0 0  9997
2 27673  95.0000  84.0000 0000000   0.0000 264.0000 14.24551582    13
CTC2_L_00233008-04
1 27674U 25882KP  26037.47792824  .00000000  00000+0  00000-0 0  9991
2 27674  95.0000  84.0000 0000000   0.0000 354.0000 14.24551582    14
CTC2_L_00233009-01
1 27675U 26389WI  26037.47792824  .00000000  00000+0  00000-0 0  9995
2 27675  95.0000  96.0000 0000000   0.0000  96.0000 14.24551582    11
CTC2_L_00233009-02
1 27676U 24223BS  26037.47792824  .00000000  00000+0  00000-0 0  9991
2 27676  95.0000  96.0000 0000000   0.0000 186.0000 14.24551582    12
CTC2_L_00233009-03
1 27677U 23086HY  26037.47792824  .00000000  00000+0  00000-0 0  9998
2 27677  95.0000  96.0000 0000000   0.0000 276.0000 14.24551582    13
CTC2_L_00233009-04
1 27678U 26048HD  26037.47792824  .00000000  00000+0  00000-0 0  9990
2 27678  95.0000  96.0000 0000000   0.0000   6.0000 14.24551582    15
CTC2_L_00233010-01
1 27679U 25307OR  26037.47792824  .00000000  00000+0  00000-0 0  9998
2 27679  95.0000 108.0000 0000000   0.0000 108.0000 14.24551582    13
CTC2_L_00233010-02
1 27680U 25549FZ  26037.47792824  .00000000  00000+0  00000-0 0  9998
2 27680  95.0000 108.0000 0000000   0.0000 198.0000 14.24551582    14
CTC2_L_00233010-03
1 27681U 23166DC  26037.47792824  .00000000  00000+0  00000-0 0  9992
2 27681  95.0000 108.0000 0000000   0.0000 288.0000 14.24551582    15
CTC2_L_00233010-04
1 27682U 26880EX  26037.47792824  .00000000  00000+0  00000-0 0  9999
2 27682  95.0000 108.0000 0000000   0.0000  18.0000 14.24551582    17
CTC2_L_00233011-01
1 27683U 26572NI  26037.47792824  .00000000  00000+0  00000-0 0  9998
2 27683  95.0000 120.0000 0000000   0.0000 120.0000 14.24551582    16
CTC2_L_00233011-02
1 27684U 22072VQ  26037.47792824  .00000000  00000+0  00000-0 0  9990
2 27684  95.0000 120.0000 0000000   0.0000 210.0000 14.24551582    17
CTC2_L_00233011-03
1 27685U 25228BE  26037.47792824  .00000000  00000+0  00000-0 0  9997
2 27685  95.0000 120.0000 0000000   0.0000 300.0000 14.24551582    18
CTC2_L_00233011-04
1 27686U 22424CH  26037.47792824  .00000000  00000+0  00000-0 0  9993
2 27686  95.0000 120.0000 0000000   0.0000  30.0000 14.24551582    19
CTC2_L_00233012-01
1 27687U 22156VH  26037.47792824  .00000000  00000+0  00000-0 0  9996
2 27687  95.0000 132.0000 0000000   0.0000 132.0000 14.24551582    16
CTC2_L_00233012-02
1 27688U 24742OV  26037.47792824  .00000000  00000+0  00000-0 0  9990
2 27688  95.0000 132.0000 0000000   0.0000 222.0000 14.24551582    17
CTC2_L_00233012-03
1 27689U 26507XO  26037.47792824  .00000000  00000+0  00000-0 0  9992
2 27689  95.0000 132.0000 0000000   0.0000 312.0000 14.24551582    18
CTC2_L_00233012-04
1 27690U 22039UP  26037.47792824  .00000000  00000+0  00000-0 0  9990
2 27690  95.0000 132.0000 0000000   0.0000  42.0000 14.24551582    10
CTC2_L_00233013-01
1 27691U 23004VM  26037.47792824  .00000000  00000+0  00000-0 0  9994
2 27691  95.0000 144.0000 0000000   0.0000 144.0000 14.24551582    17
CTC2_L_00233013-02
1 27692U 25202LE  26037.47792824  .00000000  00000+0  00000-0 0  9997
2 27692  95.0000 144.0000 0000000   0.0000 234.0000 14.24551582    18
CTC2_L_00233013-03
1 27693U 23344D   26037.47792824  .00000000  00000+0  00000-0 0  9993
2 27693  95.0000 144.0000 0000000   0.0000 324.0000 14.24551582    19
CTC2_L_00233013-04
1 27694U 23698ON  26037.47792824  .00000000  00000+0  00000-0 0  9996
2 27694  95.0000 144.0000 0000000   0.0000  54.0000 14.24551582    10
CTC2_L_00233014-01
1 27695U 22154EQ  26037.47792824  .00000000  00000+0  00000-0 0  9993
2 27695  95.0000 156.0000 0000000   0.0000 156.0000 14.24551582    17
CTC2_L_00233014-02
1 27696U 25478OA  26037.47792824  .00000000  00000+0  00000-0 0  9996
2 27696  95.0000 156.0000 0000000   0.0000 246.0000 14.24551582    18
CTC2_L_00233014-03
1 27697U 25853SX  26037.47792824  .00000000  00000+0  00000-0 0  9994
2 27697  95.0000 156.0000 0000000   0.0000 336.0000 14.24551582    19
CTC2_L_00233014-04
1 27698U 22944ZG  26037.47792824  .00000000  00000+0  00000-0 0  9993
2 27698  95.0000 156.0000 0000000   0.0000  66.0000 14.24551582    10
CTC2_L_00233015-01
1 27699U 23002JG  26037.47792824  .00000000  00000+0  00000-0 0  9990
2 27699  95.0000 168.0000 0000000   0.0000 168.0000 14.24551582    17
CTC2_L_00233015-02
1 27700U 25464LQ  26037.47792824  .00000000  00000+0  00000-0 0  9997
2 27700  95.0000 168.0000 0000000   0.0000 258.0000 14.24551582    10
CTC2_L_00233015-03
1 27701U 25267EJ  26037.47792824  .00000000  00000+0  00000-0 0  9999
2 27701  95.0000 168.0000 0000000   0.0000 348.0000 14.24551582    11
CTC2_L_00233015-04
1 27702U 22702PC  26037.47792824  .00000000  00000+0  00000-0 0  9991
2 27702  95.0000 168.0000 0000000   0.0000  78.0000 14.24551582    12
CTC2_L_00233016-01
1 27703U 22940TM  26037.47792824  .00000000  00000+0  00000-0 0  9996
2 27703  95.0000 180.0000 0000000   0.0000 180.0000 14.24551582    11
CTC2_L_00233016-02
1 27704U 24147FU  26037.47792824  .00000000  00000+0  00000-0 0  9998
2 27704  95.0000 180.0000 0000000   0.0000 270.0000 14.24551582    12
